[{"OBJECT_NAME":"STARLINK-32839","OBJECT_ID":"2025-037A","EPOCH":"2026-03-09T23:33:53.501472","MEAN_MOTION":14.98327327,"ECCENTRICITY":0.0002684,"INCLINATION":70.0024,"RA_OF_ASC_NODE":353.8071,"ARG_OF_PERICENTER":269.6025,"MEAN_ANOMALY":90.4826,"EPHEMERIS_TYPE":0,"CLASSIFICATION_TYPE":"U","NORAD_CAT_ID":63077,"ELEMENT_SET_NO":999,"REV_AT_EPOCH":5863,"BSTAR":0.0005179283,"MEAN_MOTION_DOT":6.092e-5,"MEAN_MOTION_DDOT":0},{"OBJECT_NAME":"CZ-2C R\/B","OBJECT_ID":"2023-187D","EPOCH":"2026-03-09T21:18:27.461376","MEAN_MOTION":14.91546811,"ECCENTRICITY":0.00358476,"INCLINATION":98.1132,"RA_OF_ASC_NODE":178.247,"ARG_OF_PERICENTER":167.8673,"MEAN_ANOMALY":192.3416,"EPHEMERIS_TYPE":0,"CLASSIFICATION_TYPE":"U","NORAD_CAT_ID":58499,"ELEMENT_SET_NO":999,"REV_AT_EPOCH":12301,"BSTAR":0.00023879444,"MEAN_MOTION_DOT":2.36e-5,"MEAN_MOTION_DDOT":0}]
